CORAL                   
1 67685U 98067YB  26054.23048415  .00046455  00000+0  79164-3 0  9999
2 67685  51.6308 143.6052 0011889 134.4508 225.7456 15.50824960  2542
ISS OBJECT YC           
1 67686U 98067YC  26054.22865737  .00054606  00000+0  92039-3 0  9996
2 67686  51.6314 143.5941 0007702 104.5865 255.5979 15.51108116  2549
LEOPARD                 
1 67687U 98067YD  26054.23120729  .00042762  00000+0  73329-3 0  9994
2 67687  51.6313 143.6110 0007762 107.5901 252.5936 15.50729975  2460
ISS OBJECT YE           
1 67688U 98067YE  26053.26289915  .00047740  00000+0  81295-3 0  9992
2 67688  51.6324 148.3958 0007695 103.3001 256.8847 15.50878079  2317
PRC TEST SPACECRAFT 4   
1 67689U 26024A   26054.29143339 -.00000007  00000+0  23351-4 0  9996
2 67689  49.9851  90.3609 0006175 304.6069  55.4289 14.91676569  2434
STARLINK-36748          
1 67693U 26025A   26054.25002315 -.01863279  00000+0 -12195-1 0  9997
2 67693  97.2821 165.0676 0001673  72.6754 292.1817 15.78754217  3539
STARLINK-36753          
1 67694U 26025B   26054.25002315 -.01062229  00000+0 -61692-2 0  9991
2 67694  97.2810 165.0798 0001686  77.0161 319.2665 15.81137956  3685
STARLINK-36750          
1 67695U 26025C   26054.25002315  .00136933  00000+0  70780-3 0  9992
2 67695  97.2826 165.0719 0001504  68.9945 308.4518 15.80712018  3532
STARLINK-36401          
1 67696U 26025D   26054.25002315  .00223125  00000+0  11412-2 0  9999
2 67696  97.2819 165.0762 0001300  81.5059 304.7223 15.80716290  3532
