CCSDS_OMM_VERS = 2.0
CREATION_DATE  = 
ORIGINATOR     = 

OBJECT_NAME    = CORAL
OBJECT_ID      = 1998-067YB
CENTER_NAME    = EARTH
REF_FRAME      = TEME
TIME_SYSTEM    = UTC
MEAN_ELEMENT_THEORY = SGP/SGP4

EPOCH          = 2026-02-23T05:31:53.830560
MEAN_MOTION    = 15.50824960
ECCENTRICITY   = .00118898
INCLINATION    = 51.6308
RA_OF_ASC_NODE = 143.6052
ARG_OF_PERICENTER = 134.4508
MEAN_ANOMALY   = 225.7456

EPHEMERIS_TYPE = 0
CLASSIFICATION_TYPE = U
NORAD_CAT_ID   = 67685
ELEMENT_SET_NO = 999
REV_AT_EPOCH   = 254
BSTAR          = .79163921E-3
MEAN_MOTION_DOT = .46455E-3
MEAN_MOTION_DDOT = 0

CCSDS_OMM_VERS = 2.0
CREATION_DATE  = 
ORIGINATOR     = 

OBJECT_NAME    = ISS OBJECT YC
OBJECT_ID      = 1998-067YC
CENTER_NAME    = EARTH
REF_FRAME      = TEME
TIME_SYSTEM    = UTC
MEAN_ELEMENT_THEORY = SGP/SGP4

EPOCH          = 2026-02-23T05:29:15.996768
MEAN_MOTION    = 15.51108116
ECCENTRICITY   = .00077025
INCLINATION    = 51.6314
RA_OF_ASC_NODE = 143.5941
ARG_OF_PERICENTER = 104.5865
MEAN_ANOMALY   = 255.5979

EPHEMERIS_TYPE = 0
CLASSIFICATION_TYPE = U
NORAD_CAT_ID   = 67686
ELEMENT_SET_NO = 999
REV_AT_EPOCH   = 254
BSTAR          = .92038514E-3
MEAN_MOTION_DOT = .54606E-3
MEAN_MOTION_DDOT = 0

CCSDS_OMM_VERS = 2.0
CREATION_DATE  = 
ORIGINATOR     = 

OBJECT_NAME    = LEOPARD
OBJECT_ID      = 1998-067YD
CENTER_NAME    = EARTH
REF_FRAME      = TEME
TIME_SYSTEM    = UTC
MEAN_ELEMENT_THEORY = SGP/SGP4

EPOCH          = 2026-02-23T05:32:56.309856
MEAN_MOTION    = 15.50729975
ECCENTRICITY   = .00077629
INCLINATION    = 51.6313
RA_OF_ASC_NODE = 143.6110
ARG_OF_PERICENTER = 107.5901
MEAN_ANOMALY   = 252.5936

EPHEMERIS_TYPE = 0
CLASSIFICATION_TYPE = U
NORAD_CAT_ID   = 67687
ELEMENT_SET_NO = 999
REV_AT_EPOCH   = 246
BSTAR          = .73328886E-3
MEAN_MOTION_DOT = .42762E-3
MEAN_MOTION_DDOT = 0

CCSDS_OMM_VERS = 2.0
CREATION_DATE  = 
ORIGINATOR     = 

OBJECT_NAME    = ISS OBJECT YE
OBJECT_ID      = 1998-067YE
CENTER_NAME    = EARTH
REF_FRAME      = TEME
TIME_SYSTEM    = UTC
MEAN_ELEMENT_THEORY = SGP/SGP4

EPOCH          = 2026-02-22T06:18:34.486560
MEAN_MOTION    = 15.50878079
ECCENTRICITY   = .00076954
INCLINATION    = 51.6324
RA_OF_ASC_NODE = 148.3958
ARG_OF_PERICENTER = 103.3001
MEAN_ANOMALY   = 256.8847

EPHEMERIS_TYPE = 0
CLASSIFICATION_TYPE = U
NORAD_CAT_ID   = 67688
ELEMENT_SET_NO = 999
REV_AT_EPOCH   = 231
BSTAR          = .81294922E-3
MEAN_MOTION_DOT = .4774E-3
MEAN_MOTION_DDOT = 0

CCSDS_OMM_VERS = 2.0
CREATION_DATE  = 
ORIGINATOR     = 

OBJECT_NAME    = PRC TEST SPACECRAFT 4
OBJECT_ID      = 2026-024A
CENTER_NAME    = EARTH
REF_FRAME      = TEME
TIME_SYSTEM    = UTC
MEAN_ELEMENT_THEORY = SGP/SGP4

EPOCH          = 2026-02-23T06:59:39.844896
MEAN_MOTION    = 14.91676569
ECCENTRICITY   = .0006175
INCLINATION    = 49.9851
RA_OF_ASC_NODE = 90.3609
ARG_OF_PERICENTER = 304.6069
MEAN_ANOMALY   = 55.4289

EPHEMERIS_TYPE = 0
CLASSIFICATION_TYPE = U
NORAD_CAT_ID   = 67689
ELEMENT_SET_NO = 999
REV_AT_EPOCH   = 243
BSTAR          = .23351344E-4
MEAN_MOTION_DOT = -.7E-7
MEAN_MOTION_DDOT = 0

CCSDS_OMM_VERS = 2.0
CREATION_DATE  = 
ORIGINATOR     = 

OBJECT_NAME    = STARLINK-36748
OBJECT_ID      = 2026-025A
CENTER_NAME    = EARTH
REF_FRAME      = TEME
TIME_SYSTEM    = UTC
MEAN_ELEMENT_THEORY = SGP/SGP4

EPOCH          = 2026-02-23T06:00:02.000160
MEAN_MOTION    = 15.78754217
ECCENTRICITY   = .00016738
INCLINATION    = 97.2821
RA_OF_ASC_NODE = 165.0676
ARG_OF_PERICENTER = 72.6754
MEAN_ANOMALY   = 292.1817

EPHEMERIS_TYPE = 0
CLASSIFICATION_TYPE = U
NORAD_CAT_ID   = 67693
ELEMENT_SET_NO = 999
REV_AT_EPOCH   = 353
BSTAR          = -.12194835E-1
MEAN_MOTION_DOT = -.1863279E-1
MEAN_MOTION_DDOT = 0

CCSDS_OMM_VERS = 2.0
CREATION_DATE  = 
ORIGINATOR     = 

OBJECT_NAME    = STARLINK-36753
OBJECT_ID      = 2026-025B
CENTER_NAME    = EARTH
REF_FRAME      = TEME
TIME_SYSTEM    = UTC
MEAN_ELEMENT_THEORY = SGP/SGP4

EPOCH          = 2026-02-23T06:00:02.000160
MEAN_MOTION    = 15.81137956
ECCENTRICITY   = .00016868
INCLINATION    = 97.2810
RA_OF_ASC_NODE = 165.0798
ARG_OF_PERICENTER = 77.0161
MEAN_ANOMALY   = 319.2665

EPHEMERIS_TYPE = 0
CLASSIFICATION_TYPE = U
NORAD_CAT_ID   = 67694
ELEMENT_SET_NO = 999
REV_AT_EPOCH   = 368
BSTAR          = -.61691685E-2
MEAN_MOTION_DOT = -.1062229E-1
MEAN_MOTION_DDOT = 0

CCSDS_OMM_VERS = 2.0
CREATION_DATE  = 
ORIGINATOR     = 

OBJECT_NAME    = STARLINK-36750
OBJECT_ID      = 2026-025C
CENTER_NAME    = EARTH
REF_FRAME      = TEME
TIME_SYSTEM    = UTC
MEAN_ELEMENT_THEORY = SGP/SGP4

EPOCH          = 2026-02-23T06:00:02.000160
MEAN_MOTION    = 15.80712018
ECCENTRICITY   = .00015043
INCLINATION    = 97.2826
RA_OF_ASC_NODE = 165.0719
ARG_OF_PERICENTER = 68.9945
MEAN_ANOMALY   = 308.4518

EPHEMERIS_TYPE = 0
CLASSIFICATION_TYPE = U
NORAD_CAT_ID   = 67695
ELEMENT_SET_NO = 999
REV_AT_EPOCH   = 353
BSTAR          = .70780106E-3
MEAN_MOTION_DOT = .136933E-2
MEAN_MOTION_DDOT = 0

CCSDS_OMM_VERS = 2.0
CREATION_DATE  = 
ORIGINATOR     = 

OBJECT_NAME    = STARLINK-36401
OBJECT_ID      = 2026-025D
CENTER_NAME    = EARTH
REF_FRAME      = TEME
TIME_SYSTEM    = UTC
MEAN_ELEMENT_THEORY = SGP/SGP4

EPOCH          = 2026-02-23T06:00:02.000160
MEAN_MOTION    = 15.80716290
ECCENTRICITY   = .00013007
INCLINATION    = 97.2819
RA_OF_ASC_NODE = 165.0762
ARG_OF_PERICENTER = 81.5059
MEAN_ANOMALY   = 304.7223

EPHEMERIS_TYPE = 0
CLASSIFICATION_TYPE = U
NORAD_CAT_ID   = 67696
ELEMENT_SET_NO = 999
REV_AT_EPOCH   = 353
BSTAR          = .11412356E-2
MEAN_MOTION_DOT = .223125E-2
MEAN_MOTION_DDOT = 0

